CCSDS_OMM_VERS = 2.0
CREATION_DATE  = 
ORIGINATOR     = 

OBJECT_NAME    = SL-3 R/B
OBJECT_ID      = 1982-079B
CENTER_NAME    = EARTH
REF_FRAME      = TEME
TIME_SYSTEM    = UTC
MEAN_ELEMENT_THEORY = SGP/SGP4

EPOCH          = 2025-11-25T09:45:34.630848
MEAN_MOTION    = 15.23308117
ECCENTRICITY   = .0026162
INCLINATION    = 81.1463
RA_OF_ASC_NODE = 316.0897
ARG_OF_PERICENTER = 155.1269
MEAN_ANOMALY   = 205.1232

EPHEMERIS_TYPE = 0
CLASSIFICATION_TYPE = U
NORAD_CAT_ID   = 13403
ELEMENT_SET_NO = 999
REV_AT_EPOCH   = 36181
BSTAR          = .27006E-3
MEAN_MOTION_DOT = .6494E-4
MEAN_MOTION_DDOT = 0

CCSDS_OMM_VERS = 2.0
CREATION_DATE  = 
ORIGINATOR     = 

OBJECT_NAME    = SL-14 R/B
OBJECT_ID      = 1982-092B
CENTER_NAME    = EARTH
REF_FRAME      = TEME
TIME_SYSTEM    = UTC
MEAN_ELEMENT_THEORY = SGP/SGP4

EPOCH          = 2025-11-25T06:09:42.583104
MEAN_MOTION    = 14.86528450
ECCENTRICITY   = .0018873
INCLINATION    = 82.5690
RA_OF_ASC_NODE = 239.0602
ARG_OF_PERICENTER = 289.6439
MEAN_ANOMALY   = 184.9721

EPHEMERIS_TYPE = 0
CLASSIFICATION_TYPE = U
NORAD_CAT_ID   = 13553
ELEMENT_SET_NO = 999
REV_AT_EPOCH   = 31341
BSTAR          = .78348E-4
MEAN_MOTION_DOT = .719E-5
MEAN_MOTION_DDOT = 0

CCSDS_OMM_VERS = 2.0
CREATION_DATE  = 
ORIGINATOR     = 

OBJECT_NAME    = SL-3 R/B
OBJECT_ID      = 1983-010B
CENTER_NAME    = EARTH
REF_FRAME      = TEME
TIME_SYSTEM    = UTC
MEAN_ELEMENT_THEORY = SGP/SGP4

EPOCH          = 2025-11-25T11:00:23.020128
MEAN_MOTION    = 15.42816859
ECCENTRICITY   = .0018007
INCLINATION    = 81.1029
RA_OF_ASC_NODE = 129.7019
ARG_OF_PERICENTER = 50.8435
MEAN_ANOMALY   = 309.4405

EPHEMERIS_TYPE = 0
CLASSIFICATION_TYPE = U
NORAD_CAT_ID   = 13819
ELEMENT_SET_NO = 999
REV_AT_EPOCH   = 34185
BSTAR          = .39372E-3
MEAN_MOTION_DOT = .17389E-3
MEAN_MOTION_DDOT = 0

CCSDS_OMM_VERS = 2.0
CREATION_DATE  = 
ORIGINATOR     = 

OBJECT_NAME    = SL-3 R/B
OBJECT_ID      = 1983-075B
CENTER_NAME    = EARTH
REF_FRAME      = TEME
TIME_SYSTEM    = UTC
MEAN_ELEMENT_THEORY = SGP/SGP4

EPOCH          = 2025-11-25T10:58:03.027072
MEAN_MOTION    = 15.35644005
ECCENTRICITY   = .0021075
INCLINATION    = 97.6107
RA_OF_ASC_NODE = 325.3670
ARG_OF_PERICENTER = 239.8484
MEAN_ANOMALY   = 120.0671

EPHEMERIS_TYPE = 0
CLASSIFICATION_TYPE = U
NORAD_CAT_ID   = 14208
ELEMENT_SET_NO = 999
REV_AT_EPOCH   = 31414
BSTAR          = .37421E-3
MEAN_MOTION_DOT = .12983E-3
MEAN_MOTION_DDOT = 0

CCSDS_OMM_VERS = 2.0
CREATION_DATE  = 
ORIGINATOR     = 

OBJECT_NAME    = COSMOS 1536
OBJECT_ID      = 1984-013A
CENTER_NAME    = EARTH
REF_FRAME      = TEME
TIME_SYSTEM    = UTC
MEAN_ELEMENT_THEORY = SGP/SGP4

EPOCH          = 2025-11-25T10:53:39.845760
MEAN_MOTION    = 15.22247455
ECCENTRICITY   = .0013409
INCLINATION    = 82.5461
RA_OF_ASC_NODE = 211.3016
ARG_OF_PERICENTER = 293.8781
MEAN_ANOMALY   = 66.1049

EPHEMERIS_TYPE = 0
CLASSIFICATION_TYPE = U
NORAD_CAT_ID   = 14699
ELEMENT_SET_NO = 999
REV_AT_EPOCH   = 25675
BSTAR          = .31255E-3
MEAN_MOTION_DOT = .7235E-4
MEAN_MOTION_DDOT = 0

CCSDS_OMM_VERS = 2.0
CREATION_DATE  = 
ORIGINATOR     = 

OBJECT_NAME    = SL-14 R/B
OBJECT_ID      = 1984-027B
CENTER_NAME    = EARTH
REF_FRAME      = TEME
TIME_SYSTEM    = UTC
MEAN_ELEMENT_THEORY = SGP/SGP4

EPOCH          = 2025-11-25T10:48:40.284864
MEAN_MOTION    = 14.85847131
ECCENTRICITY   = .0016954
INCLINATION    = 82.5413
RA_OF_ASC_NODE = 342.7717
ARG_OF_PERICENTER = 322.9289
MEAN_ANOMALY   = 37.0755

EPHEMERIS_TYPE = 0
CLASSIFICATION_TYPE = U
NORAD_CAT_ID   = 14820
ELEMENT_SET_NO = 999
REV_AT_EPOCH   = 23215
BSTAR          = .69325E-4
MEAN_MOTION_DOT = .629E-5
MEAN_MOTION_DDOT = 0

CCSDS_OMM_VERS = 2.0
CREATION_DATE  = 
ORIGINATOR     = 

OBJECT_NAME    = SL-8 R/B
OBJECT_ID      = 1985-006B
CENTER_NAME    = EARTH
REF_FRAME      = TEME
TIME_SYSTEM    = UTC
MEAN_ELEMENT_THEORY = SGP/SGP4

EPOCH          = 2025-11-25T11:54:33.084864
MEAN_MOTION    = 14.37705621
ECCENTRICITY   = .0017963
INCLINATION    = 74.0452
RA_OF_ASC_NODE = 92.8583
ARG_OF_PERICENTER = 30.2767
MEAN_ANOMALY   = 38.2705

EPHEMERIS_TYPE = 0
CLASSIFICATION_TYPE = U
NORAD_CAT_ID   = 15483
ELEMENT_SET_NO = 999
REV_AT_EPOCH   = 13905
BSTAR          = .13701E-3
MEAN_MOTION_DOT = .386E-5
MEAN_MOTION_DDOT = 0

CCSDS_OMM_VERS = 2.0
CREATION_DATE  = 
ORIGINATOR     = 

OBJECT_NAME    = SL-12 R/B(2)
OBJECT_ID      = 1985-042D
CENTER_NAME    = EARTH
REF_FRAME      = TEME
TIME_SYSTEM    = UTC
MEAN_ELEMENT_THEORY = SGP/SGP4

EPOCH          = 2025-11-25T09:18:40.423104
MEAN_MOTION    = 14.21943570
ECCENTRICITY   = .0037598
INCLINATION    = 71.1078
RA_OF_ASC_NODE = 308.0778
ARG_OF_PERICENTER = 286.8954
MEAN_ANOMALY   = 225.6628

EPHEMERIS_TYPE = 0
CLASSIFICATION_TYPE = U
NORAD_CAT_ID   = 15772
ELEMENT_SET_NO = 999
REV_AT_EPOCH   = 9956
BSTAR          = .79478E-4
MEAN_MOTION_DOT = .129E-5
MEAN_MOTION_DDOT = 0

CCSDS_OMM_VERS = 2.0
CREATION_DATE  = 
ORIGINATOR     = 

OBJECT_NAME    = SL-14 R/B
OBJECT_ID      = 1985-069B
CENTER_NAME    = EARTH
REF_FRAME      = TEME
TIME_SYSTEM    = UTC
MEAN_ELEMENT_THEORY = SGP/SGP4

EPOCH          = 2025-11-25T11:12:19.207008
MEAN_MOTION    = 14.86293095
ECCENTRICITY   = .0018976
INCLINATION    = 82.5249
RA_OF_ASC_NODE = 122.9414
ARG_OF_PERICENTER = 173.2018
MEAN_ANOMALY   = 186.9460

EPHEMERIS_TYPE = 0
CLASSIFICATION_TYPE = U
NORAD_CAT_ID   = 15945
ELEMENT_SET_NO = 999
REV_AT_EPOCH   = 15735
BSTAR          = .80581E-4
MEAN_MOTION_DOT = .735E-5
MEAN_MOTION_DDOT = 0

CCSDS_OMM_VERS = 2.0
CREATION_DATE  = 
ORIGINATOR     = 

OBJECT_NAME    = SL-16 R/B
OBJECT_ID      = 1985-097B
CENTER_NAME    = EARTH
REF_FRAME      = TEME
TIME_SYSTEM    = UTC
MEAN_ELEMENT_THEORY = SGP/SGP4

EPOCH          = 2025-11-25T11:42:02.405376
MEAN_MOTION    = 14.16582300
ECCENTRICITY   = .0005732
INCLINATION    = 71.0040
RA_OF_ASC_NODE = 359.9252
ARG_OF_PERICENTER = 40.6243
MEAN_ANOMALY   = 63.0098

EPHEMERIS_TYPE = 0
CLASSIFICATION_TYPE = U
NORAD_CAT_ID   = 16182
ELEMENT_SET_NO = 999
REV_AT_EPOCH   = 7247
BSTAR          = .65428E-4
MEAN_MOTION_DOT = .83E-6
MEAN_MOTION_DDOT = 0

CCSDS_OMM_VERS = 2.0
CREATION_DATE  = 
ORIGINATOR     = 

OBJECT_NAME    = SL-14 R/B
OBJECT_ID      = 1986-006B
CENTER_NAME    = EARTH
REF_FRAME      = TEME
TIME_SYSTEM    = UTC
MEAN_ELEMENT_THEORY = SGP/SGP4

EPOCH          = 2025-11-25T11:15:45.897408
MEAN_MOTION    = 14.86636915
ECCENTRICITY   = .0075214
INCLINATION    = 82.5274
RA_OF_ASC_NODE = 357.8026
ARG_OF_PERICENTER = 257.9337
MEAN_ANOMALY   = 101.3445

EPHEMERIS_TYPE = 0
CLASSIFICATION_TYPE = U
NORAD_CAT_ID   = 16496
ELEMENT_SET_NO = 999
REV_AT_EPOCH   = 13372
BSTAR          = .90457E-4
MEAN_MOTION_DOT = .87E-5
MEAN_MOTION_DDOT = 0

CCSDS_OMM_VERS = 2.0
CREATION_DATE  = 
ORIGINATOR     = 

OBJECT_NAME    = COSMOS 1743
OBJECT_ID      = 1986-034A
CENTER_NAME    = EARTH
REF_FRAME      = TEME
TIME_SYSTEM    = UTC
MEAN_ELEMENT_THEORY = SGP/SGP4

EPOCH          = 2025-11-25T01:07:36.858432
MEAN_MOTION    = 15.50945786
ECCENTRICITY   = .0005586
INCLINATION    = 82.5353
RA_OF_ASC_NODE = 182.9499
ARG_OF_PERICENTER = 332.0559
MEAN_ANOMALY   = 28.0392

EPHEMERIS_TYPE = 0
CLASSIFICATION_TYPE = U
NORAD_CAT_ID   = 16719
ELEMENT_SET_NO = 999
REV_AT_EPOCH   = 16399
BSTAR          = .55346E-3
MEAN_MOTION_DOT = .32192E-3
MEAN_MOTION_DDOT = 0

