SL-3 R/B                
1 13403U 82079B   25329.40665082  .00006494  00000+0  27006-3 0  9999
2 13403  81.1463 316.0897 0026162 155.1269 205.1232 15.23308117361811
SL-14 R/B               
1 13553U 82092B   25329.25674287  .00000719  00000+0  78348-4 0  9990
2 13553  82.5690 239.0602 0018872 289.6439 184.9721 14.86528450313415
SL-3 R/B                
1 13819U 83010B   25329.45859977  .00017389  00000+0  39372-3 0  9993
2 13819  81.1029 129.7019 0018007  50.8435 309.4405 15.42816859341850
SL-3 R/B                
1 14208U 83075B   25329.45697948  .00012983  00000+0  37421-3 0  9993
2 14208  97.6107 325.3670 0021075 239.8484 120.0671 15.35644005314149
COSMOS 1536             
1 14699U 84013A   25329.45393340  .00007235  00000+0  31255-3 0  9992
2 14699  82.5461 211.3016 0013409 293.8781  66.1049 15.22247455256754
SL-14 R/B               
1 14820U 84027B   25329.45046626  .00000629  00000+0  69325-4 0  9995
2 14820  82.5413 342.7717 0016954 322.9289  37.0755 14.85847131232153
SL-8 R/B                
1 15483U 85006B   25329.49621626  .00000386  00000+0  13701-3 0  9998
2 15483  74.0452  92.8583 0017963  30.2767  38.2705 14.37705621139050
SL-12 R/B(2)            
1 15772U 85042D   25329.38796786  .00000129  00000+0  79478-4 0  9996
2 15772  71.1078 308.0778 0037598 286.8954 225.6628 14.21943570 99561
SL-14 R/B               
1 15945U 85069B   25329.46688897  .00000735  00000+0  80581-4 0  9999
2 15945  82.5249 122.9414 0018976 173.2018 186.9460 14.86293095157354
SL-16 R/B               
1 16182U 85097B   25329.48752784  .00000083  00000+0  65428-4 0  9992
2 16182  71.0040 359.9252 0005732  40.6243  63.0098 14.16582300 72479
SL-14 R/B               
1 16496U 86006B   25329.46928122  .00000870  00000+0  90457-4 0  9994
2 16496  82.5274 357.8026 0075214 257.9337 101.3445 14.86636915133725
COSMOS 1743             
1 16719U 86034A   25329.04695438  .00032192  00000+0  55346-3 0  9997
2 16719  82.5353 182.9499 0005586 332.0559  28.0392 15.50945786163997
